COSMOS 1933             
1 18958U 88020A   25348.92945079  .00003340  00000+0  16693-3 0  9993
2 18958  82.5125 334.7153 0005987 119.8025 240.3804 15.17126496 37370
SL-3 R/B                
1 19046U 88032B   25348.90397675  .00004277  00000+0  20724-3 0  9996
2 19046  97.5079 327.6096 0026959 165.4911 194.7103 15.18766421 39233
SL-16 R/B               
1 19120U 88039B   25348.93136136 -.00000086  00000+0 -18184-4 0  9996
2 19120  71.0145 247.7646 0019669 112.5554 247.7655 14.19596798946355
COSMOS 1953             
1 19210U 88050A   25348.80139551  .00005504  00000+0  20620-3 0  9994
2 19210  82.5092 243.5126 0013691  65.3571 294.9092 15.26965892 24825
SL-8 R/B                
1 19257U 88053B   25348.90524950  .00000266  00000+0  94681-4 0  9999
2 19257  74.0478 268.7286 0018992 112.0239 314.8917 14.38860464964402
COSMOS 1975             
1 19573U 88093A   25348.68189830  .00007350  00000+0  27970-3 0  9990
2 19573  82.5203 202.8845 0012947 106.5322 253.7340 15.26507468  6439
SL-14 R/B               
1 19574U 88093B   25348.87353183  .00000589  00000+0  65226-4 0  9990
2 19574  82.5306 121.6647 0019787 322.0826 154.3690 14.85551324988443
SL-16 R/B               
1 19650U 88102B   25348.93070121  .00000127  00000+0  88186-4 0  9999
2 19650  70.9999 329.8328 0012898 148.0836 212.1071 14.16136747914894
INTERCOSMOS 24          
1 20261U 89080A   25348.88935059  .00000938  00000+0  26812-3 0  9996
2 20261  82.6046 159.5552 1188863 129.5355 241.7070 12.59443875656125
SL-14 R/B               
1 20262U 89080C   25348.74446587  .00000474  00000+0  13752-3 0  9999
2 20262  82.5926 227.7341 1230636  19.0082 345.3019 12.50415550649533
DELTA 1 R/B             
1 20323U 89089B   25348.84709714  .00000365  00000+0  99121-4 0  9995
2 20323  97.0750 204.7507 0069963  31.7273 328.8113 14.50573799883433
ARIANE 40 R/B           
1 20443U 90005H   25348.89355364  .00000328  00000+0  11806-3 0  9993
2 20443  98.3242  47.0106 0011296  99.9205 260.3259 14.39800229880601
