CCSDS_OMM_VERS = 2.0
CREATION_DATE  = 
ORIGINATOR     = 

OBJECT_NAME    = COSMOS 1933
OBJECT_ID      = 1988-020A
CENTER_NAME    = EARTH
REF_FRAME      = TEME
TIME_SYSTEM    = UTC
MEAN_ELEMENT_THEORY = SGP/SGP4

EPOCH          = 2025-12-14T22:18:24.548256
MEAN_MOTION    = 15.17126496
ECCENTRICITY   = .00059875
INCLINATION    = 82.5125
RA_OF_ASC_NODE = 334.7153
ARG_OF_PERICENTER = 119.8025
MEAN_ANOMALY   = 240.3804

EPHEMERIS_TYPE = 0
CLASSIFICATION_TYPE = U
NORAD_CAT_ID   = 18958
ELEMENT_SET_NO = 999
REV_AT_EPOCH   = 3737
BSTAR          = .16692536E-3
MEAN_MOTION_DOT = .334E-4
MEAN_MOTION_DDOT = 0

CCSDS_OMM_VERS = 2.0
CREATION_DATE  = 
ORIGINATOR     = 

OBJECT_NAME    = SL-3 R/B
OBJECT_ID      = 1988-032B
CENTER_NAME    = EARTH
REF_FRAME      = TEME
TIME_SYSTEM    = UTC
MEAN_ELEMENT_THEORY = SGP/SGP4

EPOCH          = 2025-12-14T21:41:43.591200
MEAN_MOTION    = 15.18766421
ECCENTRICITY   = .00269593
INCLINATION    = 97.5079
RA_OF_ASC_NODE = 327.6096
ARG_OF_PERICENTER = 165.4911
MEAN_ANOMALY   = 194.7103

EPHEMERIS_TYPE = 0
CLASSIFICATION_TYPE = U
NORAD_CAT_ID   = 19046
ELEMENT_SET_NO = 999
REV_AT_EPOCH   = 3923
BSTAR          = .20723979E-3
MEAN_MOTION_DOT = .4277E-4
MEAN_MOTION_DDOT = 0

CCSDS_OMM_VERS = 2.0
CREATION_DATE  = 
ORIGINATOR     = 

OBJECT_NAME    = SL-16 R/B
OBJECT_ID      = 1988-039B
CENTER_NAME    = EARTH
REF_FRAME      = TEME
TIME_SYSTEM    = UTC
MEAN_ELEMENT_THEORY = SGP/SGP4

EPOCH          = 2025-12-14T22:21:09.621504
MEAN_MOTION    = 14.19596798
ECCENTRICITY   = .00196698
INCLINATION    = 71.0145
RA_OF_ASC_NODE = 247.7646
ARG_OF_PERICENTER = 112.5554
MEAN_ANOMALY   = 247.7655

EPHEMERIS_TYPE = 0
CLASSIFICATION_TYPE = U
NORAD_CAT_ID   = 19120
ELEMENT_SET_NO = 999
REV_AT_EPOCH   = 94635
BSTAR          = -.1818372E-4
MEAN_MOTION_DOT = -.86E-6
MEAN_MOTION_DDOT = 0

CCSDS_OMM_VERS = 2.0
CREATION_DATE  = 
ORIGINATOR     = 

OBJECT_NAME    = COSMOS 1953
OBJECT_ID      = 1988-050A
CENTER_NAME    = EARTH
REF_FRAME      = TEME
TIME_SYSTEM    = UTC
MEAN_ELEMENT_THEORY = SGP/SGP4

EPOCH          = 2025-12-14T19:14:00.572064
MEAN_MOTION    = 15.26965892
ECCENTRICITY   = .00136917
INCLINATION    = 82.5092
RA_OF_ASC_NODE = 243.5126
ARG_OF_PERICENTER = 65.3571
MEAN_ANOMALY   = 294.9092

EPHEMERIS_TYPE = 0
CLASSIFICATION_TYPE = U
NORAD_CAT_ID   = 19210
ELEMENT_SET_NO = 999
REV_AT_EPOCH   = 2482
BSTAR          = .20619623E-3
MEAN_MOTION_DOT = .5504E-4
MEAN_MOTION_DDOT = 0

CCSDS_OMM_VERS = 2.0
CREATION_DATE  = 
ORIGINATOR     = 

OBJECT_NAME    = SL-8 R/B
OBJECT_ID      = 1988-053B
CENTER_NAME    = EARTH
REF_FRAME      = TEME
TIME_SYSTEM    = UTC
MEAN_ELEMENT_THEORY = SGP/SGP4

EPOCH          = 2025-12-14T21:43:33.556800
MEAN_MOTION    = 14.38860464
ECCENTRICITY   = .00189928
INCLINATION    = 74.0478
RA_OF_ASC_NODE = 268.7286
ARG_OF_PERICENTER = 112.0239
MEAN_ANOMALY   = 314.8917

EPHEMERIS_TYPE = 0
CLASSIFICATION_TYPE = U
NORAD_CAT_ID   = 19257
ELEMENT_SET_NO = 999
REV_AT_EPOCH   = 96440
BSTAR          = .94681142E-4
MEAN_MOTION_DOT = .266E-5
MEAN_MOTION_DDOT = 0

CCSDS_OMM_VERS = 2.0
CREATION_DATE  = 
ORIGINATOR     = 

OBJECT_NAME    = COSMOS 1975
OBJECT_ID      = 1988-093A
CENTER_NAME    = EARTH
REF_FRAME      = TEME
TIME_SYSTEM    = UTC
MEAN_ELEMENT_THEORY = SGP/SGP4

EPOCH          = 2025-12-14T16:21:56.013120
MEAN_MOTION    = 15.26507468
ECCENTRICITY   = .00129479
INCLINATION    = 82.5203
RA_OF_ASC_NODE = 202.8845
ARG_OF_PERICENTER = 106.5322
MEAN_ANOMALY   = 253.7340

EPHEMERIS_TYPE = 0
CLASSIFICATION_TYPE = U
NORAD_CAT_ID   = 19573
ELEMENT_SET_NO = 999
REV_AT_EPOCH   = 643
BSTAR          = .27969709E-3
MEAN_MOTION_DOT = .735E-4
MEAN_MOTION_DDOT = 0

CCSDS_OMM_VERS = 2.0
CREATION_DATE  = 
ORIGINATOR     = 

OBJECT_NAME    = SL-14 R/B
OBJECT_ID      = 1988-093B
CENTER_NAME    = EARTH
REF_FRAME      = TEME
TIME_SYSTEM    = UTC
MEAN_ELEMENT_THEORY = SGP/SGP4

EPOCH          = 2025-12-14T20:57:53.150112
MEAN_MOTION    = 14.85551324
ECCENTRICITY   = .00197872
INCLINATION    = 82.5306
RA_OF_ASC_NODE = 121.6647
ARG_OF_PERICENTER = 322.0826
MEAN_ANOMALY   = 154.3690

EPHEMERIS_TYPE = 0
CLASSIFICATION_TYPE = U
NORAD_CAT_ID   = 19574
ELEMENT_SET_NO = 999
REV_AT_EPOCH   = 98844
BSTAR          = .65226264E-4
MEAN_MOTION_DOT = .589E-5
MEAN_MOTION_DDOT = 0

CCSDS_OMM_VERS = 2.0
CREATION_DATE  = 
ORIGINATOR     = 

OBJECT_NAME    = SL-16 R/B
OBJECT_ID      = 1988-102B
CENTER_NAME    = EARTH
REF_FRAME      = TEME
TIME_SYSTEM    = UTC
MEAN_ELEMENT_THEORY = SGP/SGP4

EPOCH          = 2025-12-14T22:20:12.584544
MEAN_MOTION    = 14.16136747
ECCENTRICITY   = .00128984
INCLINATION    = 70.9999
RA_OF_ASC_NODE = 329.8328
ARG_OF_PERICENTER = 148.0836
MEAN_ANOMALY   = 212.1071

EPHEMERIS_TYPE = 0
CLASSIFICATION_TYPE = U
NORAD_CAT_ID   = 19650
ELEMENT_SET_NO = 999
REV_AT_EPOCH   = 91489
BSTAR          = .88186399E-4
MEAN_MOTION_DOT = .127E-5
MEAN_MOTION_DDOT = 0

CCSDS_OMM_VERS = 2.0
CREATION_DATE  = 
ORIGINATOR     = 

OBJECT_NAME    = INTERCOSMOS 24
OBJECT_ID      = 1989-080A
CENTER_NAME    = EARTH
REF_FRAME      = TEME
TIME_SYSTEM    = UTC
MEAN_ELEMENT_THEORY = SGP/SGP4

EPOCH          = 2025-12-14T21:20:39.890976
MEAN_MOTION    = 12.59443875
ECCENTRICITY   = .11888639
INCLINATION    = 82.6046
RA_OF_ASC_NODE = 159.5552
ARG_OF_PERICENTER = 129.5355
MEAN_ANOMALY   = 241.7070

EPHEMERIS_TYPE = 0
CLASSIFICATION_TYPE = U
NORAD_CAT_ID   = 20261
ELEMENT_SET_NO = 999
REV_AT_EPOCH   = 65612
BSTAR          = .26812199E-3
MEAN_MOTION_DOT = .938E-5
MEAN_MOTION_DDOT = 0

CCSDS_OMM_VERS = 2.0
CREATION_DATE  = 
ORIGINATOR     = 

OBJECT_NAME    = SL-14 R/B
OBJECT_ID      = 1989-080C
CENTER_NAME    = EARTH
REF_FRAME      = TEME
TIME_SYSTEM    = UTC
MEAN_ELEMENT_THEORY = SGP/SGP4

EPOCH          = 2025-12-14T17:52:01.851168
MEAN_MOTION    = 12.50415550
ECCENTRICITY   = .12306364
INCLINATION    = 82.5926
RA_OF_ASC_NODE = 227.7341
ARG_OF_PERICENTER = 19.0082
MEAN_ANOMALY   = 345.3019

EPHEMERIS_TYPE = 0
CLASSIFICATION_TYPE = U
NORAD_CAT_ID   = 20262
ELEMENT_SET_NO = 999
REV_AT_EPOCH   = 64953
BSTAR          = .13752224E-3
MEAN_MOTION_DOT = .474E-5
MEAN_MOTION_DDOT = 0

CCSDS_OMM_VERS = 2.0
CREATION_DATE  = 
ORIGINATOR     = 

OBJECT_NAME    = DELTA 1 R/B
OBJECT_ID      = 1989-089B
CENTER_NAME    = EARTH
REF_FRAME      = TEME
TIME_SYSTEM    = UTC
MEAN_ELEMENT_THEORY = SGP/SGP4

EPOCH          = 2025-12-14T20:19:49.192896
MEAN_MOTION    = 14.50573799
ECCENTRICITY   = .00699639
INCLINATION    = 97.0750
RA_OF_ASC_NODE = 204.7507
ARG_OF_PERICENTER = 31.7273
MEAN_ANOMALY   = 328.8113

EPHEMERIS_TYPE = 0
CLASSIFICATION_TYPE = U
NORAD_CAT_ID   = 20323
ELEMENT_SET_NO = 999
REV_AT_EPOCH   = 88343
BSTAR          = .99121356E-4
MEAN_MOTION_DOT = .365E-5
MEAN_MOTION_DDOT = 0

CCSDS_OMM_VERS = 2.0
CREATION_DATE  = 
ORIGINATOR     = 

OBJECT_NAME    = ARIANE 40 R/B
OBJECT_ID      = 1990-005H
CENTER_NAME    = EARTH
REF_FRAME      = TEME
TIME_SYSTEM    = UTC
MEAN_ELEMENT_THEORY = SGP/SGP4

EPOCH          = 2025-12-14T21:26:43.034496
MEAN_MOTION    = 14.39800229
ECCENTRICITY   = .00112964
INCLINATION    = 98.3242
RA_OF_ASC_NODE = 47.0106
ARG_OF_PERICENTER = 99.9205
MEAN_ANOMALY   = 260.3259

EPHEMERIS_TYPE = 0
CLASSIFICATION_TYPE = U
NORAD_CAT_ID   = 20443
ELEMENT_SET_NO = 999
REV_AT_EPOCH   = 88060
BSTAR          = .11806129E-3
MEAN_MOTION_DOT = .328E-5
MEAN_MOTION_DDOT = 0

